GEOEYE 1                
1 33331U 08042A   26195.88800998  .00000182  00000+0  43183-4 0  9993
2 33331  98.1328 269.4875 0003968 347.8629  12.2477 14.64649212954204
GOES 14                 
1 35491U 09033A   26195.79771084 -.00000367  00000+0  00000+0 0  9998
2 35491   1.7587  82.6967 0001899  40.3899 222.0628  1.00098247  6863
GAOFEN-8                
1 40701U 15030A   26195.97602337  .00015751  00000+0  31375-3 0  9991
2 40701  97.6886  31.0335 0009993  96.0593 264.1795 15.46944106615742
GAOFEN-9 01             
1 40894U 15047A   26195.99783309  .00000513  00000+0  69047-4 0  9991
2 40894  97.6265 230.4278 0028478  51.1105 309.2643 14.82934973584318
GAOFEN-4                
1 41194U 15083A   26194.68502446 -.00000340  00000+0  00000+0 0  9999
2 41194   0.4223  83.7871 0003940 124.9375  75.1281  1.00274923 38792
GOES 16                 
1 41866U 16071A   26195.68089253 -.00000099  00000+0  00000+0 0  9991
2 41866   0.4025  85.4749 0000527  98.1238 249.3671  1.00270922 35373
GAOFEN-5 01             
1 43461U 18043A   26195.87462911  .00000123  00000+0  35459-4 0  9990
2 43461  98.4589 168.0454 0002106  32.8229 327.3102 14.60623120435731
GAOFEN-6                
1 43484U 18048A   26195.99314723  .00000066  00000+0  17098-4 0  9995
2 43484  98.0965 258.6942 0012131  82.2074 278.0512 14.76382178437498
GEO-KOMPSAT-2A          
1 43823U 18100A   26195.72708625 -.00000352  00000+0  00000+0 0  9999
2 43823   0.0287 108.8702 0001961 352.7689 220.9550  1.00269956 27901
GAOFEN-3 03             
1 52200U 22035A   26195.98085875 -.00000137  00000+0 -28361-4 0  9990
2 52200  98.4061 204.1579 0001743  88.9302 271.2087 14.42217793224850
