{
 "generated_at": "2026-07-15T07:14:44Z",
 "sources": [
  {
   "name": "CelesTrak",
   "url": "https://celestrak.org/NORAD/elements/",
   "license": "frei verfügbar; Attribution. Ursprünglich USSPACECOM/Space-Track."
  },
  {
   "name": "GCAT (J. McDowell, planet4589.org)",
   "url": "https://planet4589.org/space/gcat/",
   "license": "CC-BY 4.0"
  }
 ],
 "satellites": [
  {
   "norad": 52200,
   "name": "GAOFEN-3 03",
   "intl": "2022-035A",
   "group": "sar",
   "gcat": {
    "class": "C",
    "category": "IMG-R",
    "owner": "GWHYZ",
    "state": "CN"
   },
   "omm": {
    "OBJECT_NAME": "GAOFEN-3 03",
    "OBJECT_ID": "2022-035A",
    "EPOCH": "2026-07-14T23:32:26.196000",
    "MEAN_MOTION": 14.42217793,
    "ECCENTRICITY": 0.00017439,
    "INCLINATION": 98.4061,
    "RA_OF_ASC_NODE": 204.1579,
    "ARG_OF_PERICENTER": 88.9302,
    "MEAN_ANOMALY": 271.2087,
    "EPHEMERIS_TYPE": 0,
    "CLASSIFICATION_TYPE": "U",
    "NORAD_CAT_ID": 52200,
    "ELEMENT_SET_NO": 999,
    "REV_AT_EPOCH": 22485,
    "BSTAR": -0.000028360516,
    "MEAN_MOTION_DOT": -0.00000137,
    "MEAN_MOTION_DDOT": 0
   }
  },
  {
   "norad": 41194,
   "name": "GAOFEN-4",
   "intl": "2015-083A",
   "group": "resource",
   "gcat": {
    "class": "C",
    "category": "IMG",
    "owner": "CNSAS",
    "state": "CN"
   },
   "omm": {
    "OBJECT_NAME": "GAOFEN-4",
    "OBJECT_ID": "2015-083A",
    "EPOCH": "2026-07-13T16:26:26.113344",
    "MEAN_MOTION": 1.00274923,
    "ECCENTRICITY": 0.00039405,
    "INCLINATION": 0.4223,
    "RA_OF_ASC_NODE": 83.7871,
    "ARG_OF_PERICENTER": 124.9375,
    "MEAN_ANOMALY": 75.1281,
    "EPHEMERIS_TYPE": 0,
    "CLASSIFICATION_TYPE": "U",
    "NORAD_CAT_ID": 41194,
    "ELEMENT_SET_NO": 999,
    "REV_AT_EPOCH": 3879,
    "BSTAR": 0,
    "MEAN_MOTION_DOT": -0.0000034,
    "MEAN_MOTION_DDOT": 0
   }
  },
  {
   "norad": 43461,
   "name": "GAOFEN-5 01",
   "intl": "2018-043A",
   "group": "resource",
   "gcat": {
    "class": null,
    "category": null,
    "owner": null,
    "state": null
   },
   "omm": {
    "OBJECT_NAME": "GAOFEN-5 01",
    "OBJECT_ID": "2018-043A",
    "EPOCH": "2026-07-14T20:59:27.955104",
    "MEAN_MOTION": 14.6062312,
    "ECCENTRICITY": 0.00021063,
    "INCLINATION": 98.4589,
    "RA_OF_ASC_NODE": 168.0454,
    "ARG_OF_PERICENTER": 32.8229,
    "MEAN_ANOMALY": 327.3102,
    "EPHEMERIS_TYPE": 0,
    "CLASSIFICATION_TYPE": "U",
    "NORAD_CAT_ID": 43461,
    "ELEMENT_SET_NO": 999,
    "REV_AT_EPOCH": 43573,
    "BSTAR": 0.000035458692,
    "MEAN_MOTION_DOT": 0.00000123,
    "MEAN_MOTION_DDOT": 0
   }
  },
  {
   "norad": 43484,
   "name": "GAOFEN-6",
   "intl": "2018-048A",
   "group": "resource",
   "gcat": {
    "class": "C",
    "category": "IMG",
    "owner": "CNSAS",
    "state": "CN"
   },
   "omm": {
    "OBJECT_NAME": "GAOFEN-6",
    "OBJECT_ID": "2018-048A",
    "EPOCH": "2026-07-14T23:50:07.920672",
    "MEAN_MOTION": 14.76382178,
    "ECCENTRICITY": 0.00121311,
    "INCLINATION": 98.0965,
    "RA_OF_ASC_NODE": 258.6942,
    "ARG_OF_PERICENTER": 82.2074,
    "MEAN_ANOMALY": 278.0512,
    "EPHEMERIS_TYPE": 0,
    "CLASSIFICATION_TYPE": "U",
    "NORAD_CAT_ID": 43484,
    "ELEMENT_SET_NO": 999,
    "REV_AT_EPOCH": 43749,
    "BSTAR": 0.000017098483,
    "MEAN_MOTION_DOT": 6.6e-7,
    "MEAN_MOTION_DDOT": 0
   }
  },
  {
   "norad": 40701,
   "name": "GAOFEN-8",
   "intl": "2015-030A",
   "group": "resource",
   "gcat": {
    "class": "D",
    "category": "IMG",
    "owner": "ZZB",
    "state": "CN"
   },
   "omm": {
    "OBJECT_NAME": "GAOFEN-8",
    "OBJECT_ID": "2015-030A",
    "EPOCH": "2026-07-14T23:25:28.419168",
    "MEAN_MOTION": 15.46944106,
    "ECCENTRICITY": 0.0009993,
    "INCLINATION": 97.6886,
    "RA_OF_ASC_NODE": 31.0335,
    "ARG_OF_PERICENTER": 96.0593,
    "MEAN_ANOMALY": 264.1795,
    "EPHEMERIS_TYPE": 0,
    "CLASSIFICATION_TYPE": "U",
    "NORAD_CAT_ID": 40701,
    "ELEMENT_SET_NO": 999,
    "REV_AT_EPOCH": 61574,
    "BSTAR": 0.00031375096,
    "MEAN_MOTION_DOT": 0.00015751,
    "MEAN_MOTION_DDOT": 0
   }
  },
  {
   "norad": 40894,
   "name": "GAOFEN-9 01",
   "intl": "2015-047A",
   "group": "resource",
   "gcat": {
    "class": null,
    "category": null,
    "owner": null,
    "state": null
   },
   "omm": {
    "OBJECT_NAME": "GAOFEN-9 01",
    "OBJECT_ID": "2015-047A",
    "EPOCH": "2026-07-14T23:56:52.778976",
    "MEAN_MOTION": 14.82934973,
    "ECCENTRICITY": 0.0028478,
    "INCLINATION": 97.6265,
    "RA_OF_ASC_NODE": 230.4278,
    "ARG_OF_PERICENTER": 51.1105,
    "MEAN_ANOMALY": 309.2643,
    "EPHEMERIS_TYPE": 0,
    "CLASSIFICATION_TYPE": "U",
    "NORAD_CAT_ID": 40894,
    "ELEMENT_SET_NO": 999,
    "REV_AT_EPOCH": 58431,
    "BSTAR": 0.000069046521,
    "MEAN_MOTION_DOT": 0.00000513,
    "MEAN_MOTION_DDOT": 0
   }
  },
  {
   "norad": 43823,
   "name": "GEO-KOMPSAT-2A",
   "intl": "2018-100A",
   "group": "weather",
   "gcat": {
    "class": "C",
    "category": "MET",
    "owner": "KARI",
    "state": "KR"
   },
   "omm": {
    "OBJECT_NAME": "GEO-KOMPSAT-2A",
    "OBJECT_ID": "2018-100A",
    "EPOCH": "2026-07-14T17:27:00.252000",
    "MEAN_MOTION": 1.00269956,
    "ECCENTRICITY": 0.00019612,
    "INCLINATION": 0.0287,
    "RA_OF_ASC_NODE": 108.8702,
    "ARG_OF_PERICENTER": 352.7689,
    "MEAN_ANOMALY": 220.955,
    "EPHEMERIS_TYPE": 0,
    "CLASSIFICATION_TYPE": "U",
    "NORAD_CAT_ID": 43823,
    "ELEMENT_SET_NO": 999,
    "REV_AT_EPOCH": 2790,
    "BSTAR": 0,
    "MEAN_MOTION_DOT": -0.00000352,
    "MEAN_MOTION_DDOT": 0
   }
  },
  {
   "norad": 33331,
   "name": "GEOEYE 1",
   "intl": "2008-042A",
   "group": "resource",
   "gcat": {
    "class": null,
    "category": "IMG",
    "owner": "GEYE",
    "state": "US"
   },
   "omm": {
    "OBJECT_NAME": "GEOEYE 1",
    "OBJECT_ID": "2008-042A",
    "EPOCH": "2026-07-14T21:18:44.062272",
    "MEAN_MOTION": 14.64649212,
    "ECCENTRICITY": 0.00039686,
    "INCLINATION": 98.1328,
    "RA_OF_ASC_NODE": 269.4875,
    "ARG_OF_PERICENTER": 347.8629,
    "MEAN_ANOMALY": 12.2477,
    "EPHEMERIS_TYPE": 0,
    "CLASSIFICATION_TYPE": "U",
    "NORAD_CAT_ID": 33331,
    "ELEMENT_SET_NO": 999,
    "REV_AT_EPOCH": 95420,
    "BSTAR": 0.00004318293,
    "MEAN_MOTION_DOT": 0.00000182,
    "MEAN_MOTION_DDOT": 0
   }
  },
  {
   "norad": 35491,
   "name": "GOES 14",
   "intl": "2009-033A",
   "group": "weather",
   "gcat": {
    "class": "C",
    "category": "MET",
    "owner": "NOAA",
    "state": "US"
   },
   "omm": {
    "OBJECT_NAME": "GOES 14",
    "OBJECT_ID": "2009-033A",
    "EPOCH": "2026-07-14T19:08:42.216576",
    "MEAN_MOTION": 1.00098247,
    "ECCENTRICITY": 0.00018995,
    "INCLINATION": 1.7587,
    "RA_OF_ASC_NODE": 82.6967,
    "ARG_OF_PERICENTER": 40.3899,
    "MEAN_ANOMALY": 222.0628,
    "EPHEMERIS_TYPE": 0,
    "CLASSIFICATION_TYPE": "U",
    "NORAD_CAT_ID": 35491,
    "ELEMENT_SET_NO": 999,
    "REV_AT_EPOCH": 686,
    "BSTAR": 0,
    "MEAN_MOTION_DOT": -0.00000367,
    "MEAN_MOTION_DDOT": 0
   }
  },
  {
   "norad": 41866,
   "name": "GOES 16",
   "intl": "2016-071A",
   "group": "weather",
   "gcat": {
    "class": "C",
    "category": "MET",
    "owner": "NOAA",
    "state": "US"
   },
   "omm": {
    "OBJECT_NAME": "GOES 16",
    "OBJECT_ID": "2016-071A",
    "EPOCH": "2026-07-14T16:20:29.114592",
    "MEAN_MOTION": 1.00270922,
    "ECCENTRICITY": 0.00005273,
    "INCLINATION": 0.4025,
    "RA_OF_ASC_NODE": 85.4749,
    "ARG_OF_PERICENTER": 98.1238,
    "MEAN_ANOMALY": 249.3671,
    "EPHEMERIS_TYPE": 0,
    "CLASSIFICATION_TYPE": "U",
    "NORAD_CAT_ID": 41866,
    "ELEMENT_SET_NO": 999,
    "REV_AT_EPOCH": 3537,
    "BSTAR": 0,
    "MEAN_MOTION_DOT": -9.9e-7,
    "MEAN_MOTION_DDOT": 0
   }
  }
 ]
}
